NORAD_CAT_ID,OBJECT_NAME,OBJECT_TYPE,EPOCH,MEAN_MOTION,ECCENTRICITY,INCLINATION,RA_OF_ASC_NODE,ARG_OF_PERICENTER,MEAN_ANOMALY,BSTAR,MEAN_MOTION_DOT,MEAN_MOTION_DDOT,TLE_LINE0,TLE_LINE1,TLE_LINE2,SEMIMAJOR_AXIS,PERIOD,APOGEE,PERIGEE,DECAYED
55309.0,STARLINK-5315,PAYLOAD,2024-07-05 22:23:17,14.98318785,0.0002736,70.0,107.0479,268.688,91.3966,0.00017841,2.036e-05,0.0,0 STARLINK-5315,1 55309U 23010AS  24187.93284185  .00002036  00000-0  17841-3 0  9995,2 55309  70.0000 107.0479 0002736 268.6880  91.3966 14.98318785 82137,6950.228,96.108,573.994,570.191,0.0
55309.0,STARLINK-5315,PAYLOAD,2024-07-06 04:47:49,14.98331497,0.0002749,70.0001,106.3754,270.4982,89.5862,1.1833e-05,4.8e-07,0.0,0 STARLINK-5315,1 55309U 23010AS  24188.19987742  .00000048  00000-0  11833-4 0  9990,2 55309  70.0001 106.3754 0002749 270.4982  89.5862 14.98331497 82177,6950.188,96.107,573.964,570.143,0.0
55309.0,STARLINK-5315,PAYLOAD,2024-07-06 20:49:10,14.98328477,0.0002764,70.0,104.6921,268.8863,91.1979,-2.882e-05,-4.37e-06,0.0,0 STARLINK-5315,1 55309U 23010AS  24188.86748007 -.00000437  00000-0 -28820-4 0  9991,2 55309  70.0000 104.6921 0002764 268.8863  91.1979 14.98328477 81967,6950.198,96.107,573.984,570.142,0.0
55309.0,STARLINK-5315,PAYLOAD,2024-07-06 22:25:18,14.98328468,0.0002766,70.0,104.5238,268.8901,91.1941,-2.8398e-05,-4.32e-06,0.0,0 STARLINK-5315,1 55309U 23010AS  24188.93424010 -.00000432  00000-0 -28398-4 0  9999,2 55309  70.0000 104.5238 0002766 268.8901  91.1941 14.98328468 82287,6950.198,96.107,573.985,570.14,0.0
55309.0,STARLINK-5315,PAYLOAD,2024-07-07 04:49:50,14.98333542,0.0002774,70.0,103.8505,269.0797,91.0044,4.6936e-06,-3.7e-07,0.0,0 STARLINK-5315,1 55309U 23010AS  24189.20127577 -.00000037  00000-0  46936-5 0  9997,2 55309  70.0000 103.8505 0002774 269.0797  91.0044 14.98333542 82328,6950.182,96.107,573.975,570.119,0.0
55309.0,STARLINK-5315,PAYLOAD,2024-07-07 20:51:10,14.98330905,0.000275,70.0001,102.1675,271.1694,88.915,4.1531e-05,4.03e-06,0.0,0 STARLINK-5315,1 55309U 23010AS  24189.86887582  .00000403  00000-0  41531-4 0  9999,2 55309  70.0001 102.1675 0002750 271.1694  88.9150 14.98330905 82113,6950.19,96.107,573.966,570.144,0.0
55309.0,STARLINK-5315,PAYLOAD,2024-07-08 11:16:23,14.98328803,0.0002639,70.0005,100.6535,268.869,91.2167,1.5884e-05,9.7e-07,0.0,0 STARLINK-5315,1 55309U 23010AS  24190.46971704  .00000097  00000-0  15884-4 0  9998,2 55309  70.0005 100.6535 0002639 268.8690  91.2167 14.98328803 82513,6950.197,96.107,573.896,570.227,0.0
55309.0,STARLINK-5315,PAYLOAD,2024-07-08 20:53:11,14.98329678,0.0002752,70.0001,99.6435,268.8132,91.2712,1.2482e-05,5.6e-07,0.0,0 STARLINK-5315,1 55309U 23010AS  24190.87027645  .00000056  00000-0  12482-4 0  9995,2 55309  70.0001  99.6435 0002752 268.8132  91.2712 14.98329678 82261,6950.194,96.107,573.972,570.146,0.0
55309.0,STARLINK-5315,PAYLOAD,2024-07-08 22:29:20,14.98328576,0.0002789,70.0001,99.4751,268.7436,91.3404,-2.8978e-06,-1.28e-06,0.0,0 STARLINK-5315,1 55309U 23010AS  24190.93703751 -.00000128  00000-0 -28978-5 0  9991,2 55309  70.0001  99.4751 0002789 268.7436  91.3404 14.98328576 82586,6950.197,96.107,574.001,570.124,0.0
55309.0,STARLINK-5315,PAYLOAD,2024-07-09 11:18:24,14.98332493,0.0002799,70.0,98.1283,276.7414,83.3426,-2.7745e-05,-4.24e-06,0.0,0 STARLINK-5315,1 55309U 23010AS  24191.47111582 -.00000424  00000-0 -27745-4 0  9995,2 55309  70.0000  98.1283 0002799 276.7414  83.3426 14.98332493 82664,6950.185,96.107,573.996,570.105,0.0
55309.0,STARLINK-5315,PAYLOAD,2024-07-09 20:55:13,14.98326881,0.0002744,70.0004,97.1187,265.3847,94.6999,-2.1912e-05,-3.54e-06,0.0,0 STARLINK-5315,1 55309U 23010AS  24191.87167893 -.00000354  00000-0 -21912-4 0  9997,2 55309  70.0004  97.1187 0002744 265.3847  94.6999 14.98326881 82411,6950.203,96.107,573.975,570.16,0.0
55309.0,STARLINK-5315,PAYLOAD,2024-07-09 22:31:21,14.98326337,0.000273,70.0005,96.9504,264.5267,95.558,-2.3537e-05,-3.74e-06,0.0,0 STARLINK-5315,1 55309U 23010AS  24191.93843940 -.00000374  00000-0 -23537-4 0  9995,2 55309  70.0005  96.9504 0002730 264.5267  95.5580 14.98326337 82731,6950.204,96.107,573.967,570.172,0.0
55309.0,STARLINK-5315,PAYLOAD,2024-07-10 11:20:25,14.98330307,0.0002751,70.0004,95.602,272.8114,87.273,-5.2504e-05,-7.19e-06,0.0,0 STARLINK-5315,1 55309U 23010AS  24192.47251841 -.00000719  00000-0 -52504-4 0  9997,2 55309  70.0004  95.6020 0002751 272.8114  87.2730 14.98330307 82811,6950.192,96.107,573.969,570.145,0.0
55309.0,STARLINK-5315,PAYLOAD,2024-07-10 20:57:12,14.98343823,0.0003415,69.9988,94.593,267.6392,92.4376,0.00022552,2.6e-05,0.0,0 STARLINK-5315,1 55309U 23010AS  24192.87305599  .00002600  00000-0  22552-3 0  9999,2 55309  69.9988  94.5930 0003415 267.6392  92.4376 14.98343823 82568,6950.15,96.106,574.389,569.642,0.0
55309.0,STARLINK-5315,PAYLOAD,2024-07-10 22:33:19,14.98349393,0.0003117,69.9996,94.4245,269.0805,90.9997,0.00025816,2.99e-05,0.0,0 STARLINK-5315,1 55309U 23010AS  24192.93981130  .00002990  00000-0  25816-3 0  9995,2 55309  69.9996  94.4245 0003117 269.0805  90.9997 14.98349393 82884,6950.133,96.106,574.164,569.832,0.0
55309.0,STARLINK-5315,PAYLOAD,2024-07-11 03:21:42,14.98360038,0.0002961,69.9998,93.9195,268.9683,91.1137,0.00031224,3.637e-05,0.0,0 STARLINK-5315,1 55309U 23010AS  24193.14008008  .00003637  00000-0  31224-3 0  9992,2 55309  69.9998  93.9195 0002961 268.9683  91.1137 14.98360038 82600,6950.1,96.105,574.023,569.907,0.0
55309.0,STARLINK-5315,PAYLOAD,2024-07-12 03:23:46,14.98322954,0.000328,69.9987,91.3929,271.2159,88.8624,-8.1745e-05,-1.068e-05,0.0,0 STARLINK-5315,1 55309U 23010AS  24194.14151228 -.00001068  00000-0 -81745-4 0  9998,2 55309  69.9987  91.3929 0003280 271.2159  88.8624 14.98322954 82750,6950.215,96.107,574.359,569.8,0.0
55309.0,STARLINK-5315,PAYLOAD,2024-07-12 22:37:23,14.98333624,0.0003024,69.9996,89.3737,273.6283,86.453,-0.00026725,-3.281e-05,0.0,0 STARLINK-5315,1 55309U 23010AS  24194.94263194 -.00003281  00000-0 -26725-3 0  9997,2 55309  69.9996  89.3737 0003024 273.6283  86.4530 14.98333624 83188,6950.182,96.107,574.148,569.945,0.0
55309.0,STARLINK-5315,PAYLOAD,2024-07-13 03:25:47,14.98340076,0.0002962,69.9997,88.8711,269.1516,90.9304,-0.00022783,-2.811e-05,0.0,0 STARLINK-5315,1 55309U 23010AS  24195.14290568 -.00002811  00000-0 -22783-3 0  9993,2 55309  69.9997  88.8711 0002962 269.1516  90.9304 14.98340076 82901,6950.162,96.106,574.085,569.968,0.0
55309.0,STARLINK-5315,PAYLOAD,2024-07-13 09:50:19,14.98339137,0.0002926,69.9998,88.1964,273.3812,86.7012,-0.00023132,-2.853e-05,0.0,0 STARLINK-5315,1 55309U 23010AS  24195.40994564 -.00002853  00000-0 -23132-3 0  9994,2 55309  69.9998  88.1964 0002926 273.3812  86.7012 14.98339137 83255,6950.165,96.106,574.063,569.996,0.0
55309.0,STARLINK-5315,PAYLOAD,2024-07-13 21:03:13,14.98347686,0.0002557,69.9999,87.0183,249.5353,110.5532,0.00048679,5.723e-05,0.0,0 STARLINK-5315,1 55309U 23010AS  24195.87724268  .00005723  00000-0  48679-3 0  9997,2 55309  69.9999  87.0183 0002557 249.5353 110.5532 14.98347686 83017,6950.138,96.106,573.78,570.226,0.0
55309.0,STARLINK-5315,PAYLOAD,2024-07-13 22:39:21,14.98346018,0.0002448,69.9996,86.849,245.7052,114.3851,0.00045295,5.318e-05,0.0,0 STARLINK-5315,1 55309U 23010AS  24195.94400375  .00005318  00000-0  45295-3 0  9996,2 55309  69.9996  86.8490 0002448 245.7052 114.3851 14.98346018 83334,6950.143,96.106,573.71,570.307,0.0
55309.0,STARLINK-5315,PAYLOAD,2024-07-14 01:51:37,14.98351417,0.0002744,69.9998,86.5136,266.1767,93.9078,0.00050975,5.998e-05,0.0,0 STARLINK-5315,1 55309U 23010AS  24196.07751873  .00005998  00000-0  50975-3 0  9998,2 55309  69.9998  86.5136 0002744 266.1767  93.9078 14.98351417 83353,6950.127,96.106,573.899,570.085,0.0
55309.0,STARLINK-5315,PAYLOAD,2024-07-14 19:29:09,14.983222,0.0003149,69.9994,84.6621,266.6846,93.3953,-3.526e-05,-5.14e-06,0.0,0 STARLINK-5315,1 55309U 23010AS  24196.81191210 -.00000514  00000-0 -35260-4 0  9995,2 55309  69.9994  84.6621 0003149 266.6846  93.3953 14.98322200 83152,6950.217,96.107,574.271,569.893,0.0
55309.0,STARLINK-5315,PAYLOAD,2024-07-14 22:41:25,14.98318292,0.0003281,69.9994,84.3251,268.9987,91.0796,-7.0362e-05,-9.32e-06,0.0,0 STARLINK-5315,1 55309U 23010AS  24196.94543634 -.00000932  00000-0 -70362-4 0  9996,2 55309  69.9994  84.3251 0003281 268.9987  91.0796 14.98318292 83488,6950.229,96.108,574.374,569.814,0.0
55309.0,STARLINK-5315,PAYLOAD,2024-07-15 09:54:22,14.98322587,0.0003259,69.9995,83.146,271.1636,88.915,-4.7301e-05,-6.57e-06,0.0,0 STARLINK-5315,1 55309U 23010AS  24197.41275577 -.00000657  00000-0 -47301-4 0  9998,2 55309  69.9995  83.1460 0003259 271.1636  88.9150 14.98322587 83559,6950.216,96.107,574.346,569.816,0.0
55309.0,STARLINK-5315,PAYLOAD,2024-07-15 21:07:18,14.9832369,0.0003239,69.9994,81.9677,270.3432,89.7356,-1.7978e-05,-3.08e-06,0.0,0 STARLINK-5315,1 55309U 23010AS  24197.88007568 -.00000308  00000-0 -17978-4 0  9992,2 55309  69.9994  81.9677 0003239 270.3432  89.7356 14.98323690 83314,6950.212,96.107,574.329,569.826,0.0
55309.0,STARLINK-5315,PAYLOAD,2024-07-16 01:55:41,14.9834634,0.0003133,69.9995,81.4631,268.921,91.159,-0.00019983,-2.478e-05,0.0,0 STARLINK-5315,1 55309U 23010AS  24198.08034577 -.00002478  00000-0 -19983-3 0  9992,2 55309  69.9995  81.4631 0003133 268.9210  91.1590 14.98346340 83347,6950.142,96.106,574.185,569.83,0.0
55309.0,STARLINK-5315,PAYLOAD,2024-07-16 21:09:18,14.98325156,0.0003258,69.9997,79.4432,268.0187,92.0599,0.00021173,2.434e-05,0.0,0 STARLINK-5315,1 55309U 23010AS  24198.88146723  .00002434  00000-0  21173-3 0  9991,2 55309  69.9997  79.4432 0003258 268.0187  92.0599 14.98325156 83775,6950.208,96.107,574.337,569.808,0.0
55309.0,STARLINK-5315,PAYLOAD,2024-07-17 01:57:42,14.98332282,0.0003211,69.9999,78.9384,267.7402,92.339,0.00028285,3.284e-05,0.0,0 STARLINK-5315,1 55309U 23010AS  24199.08174159  .00003284  00000-0  28285-3 0  9993,2 55309  69.9999  78.9384 0003211 267.7402  92.3390 14.98332282 83491,6950.186,96.107,574.283,569.819,0.0
